{
  "norad_id": 59420,
  "name": "STARLINK-31466",
  "history": [
    {
      "epoch": "2026-03-28T15:57:13.279392Z",
      "apogee_km": 484.4219518597265,
      "perigee_km": 481.7447036878284,
      "latitude_deg": -1.4647949950207664e-05,
      "longitude_deg": -116.02107696777449,
      "height_km": 482.90366447949293,
      "semi_major_axis_km": 6861.220327773777,
      "eccentricity": 0.0001951,
      "inclination_deg": 43.0043,
      "raan_deg": 309.3662,
      "arg_perigee_deg": 268.171,
      "mean_anomaly_deg": 91.8918,
      "mean_motion_rev_day": 15.27568568
    },
    {
      "epoch": "2026-03-28T22:13:50.090880Z",
      "apogee_km": 483.7846837668958,
      "perigee_km": 482.30266874082463,
      "latitude_deg": 4.942387526435624e-06,
      "longitude_deg": 148.09097982151715,
      "height_km": 482.8007607171046,
      "semi_major_axis_km": 6861.18067625386,
      "eccentricity": 0.000108,
      "inclination_deg": 43.0032,
      "raan_deg": 307.8894,
      "arg_perigee_deg": 271.5237,
      "mean_anomaly_deg": 88.5491,
      "mean_motion_rev_day": 15.2758181
    }
  ]
}